GSAT0218 (GALILEO 22)   
1 43058U 17079D   26092.49193683 -.00000018  00000+0  00000+0 0  9994
2 43058  55.0976 223.5832 0002467 285.5719  74.3460  1.70474722 51728
GOES 17                 
1 43226U 18022A   26094.22984669 -.00000183  00000+0  00000+0 0  9998
2 43226   0.7480  86.8133 0001221 256.8969 202.0833  1.00271726 29687
GSAT0221 (GALILEO 25)   
1 43564U 18060A   26090.04924982 -.00000099  00000+0  00000+0 0  9999
2 43564  57.1934 343.8925 0004721 315.0021  45.0002  1.70475638 47837
GSAT0222 (GALILEO 26)   
1 43565U 18060B   26093.20172289 -.00000096  00000+0  00000+0 0  9993
2 43565  57.1971 343.8104 0002935 285.5245  74.4895  1.70475247 47935
GSAT0219 (GALILEO 23)   
1 43566U 18060C   26093.42271805 -.00000096  00000+0  00000+0 0  9992
2 43566  57.1958 343.8063 0004126 326.5854  33.4353  1.70475597 47911
GSAT0220 (GALILEO 24)   
1 43567U 18060D   26092.47048715 -.00000097  00000+0  00000+0 0  9990
2 43567  57.1953 343.8319 0004601 318.6748  41.3360  1.70475758 47884
BEIDOU-3 M13            
1 43622U 18072A   26092.28812523 -.00000042  00000+0  00000+0 0  9990
2 43622  56.5605  65.1621 0009163 313.4238  46.4741  1.86230927 51246
BEIDOU-3 M14            
1 43623U 18072B   26093.22747990 -.00000044  00000+0  00000+0 0  9993
2 43623  56.5633  65.1252 0006906 335.0093  24.9295  1.86231085 51251
GPS BIII-1              
1 43873U 18109A   26093.46601485  .00000010  00000+0  00000+0 0  9997
2 43873  55.6359  95.1326 0037970 198.8705 333.4014  2.00558332 53576
METEOR-M2 2             
1 44387U 19038A   26094.27490506  .00000507  00000+0  23913-3 0  9993
2 44387  98.9115  80.4849 0000621 168.1844 191.9349 14.24345909350774
GPS BIII-2              
1 44506U 19056A   26094.10033235 -.00000091  00000+0  00000+0 0  9997
2 44506  55.6705 334.0885 0058740 197.5990 334.0807  2.00569043 48583
BEIDOU-3 M24            
1 44542U 19061A   26092.53179473  .00000009  00000+0  00000+0 0  9991
2 44542  54.3964 185.2791 0008187  13.7537 346.3000  1.86228823 44380
BEIDOU-3 M23            
1 44543U 19061B   26092.15889837  .00000005  00000+0  00000+0 0  9998
2 44543  54.3946 185.2604 0004867 359.4431  22.6796  1.86227494 44387
BEIDOU-3 M22            
1 44793U 19078A   26093.98158090 -.00000063  00000+0  00000+0 0  9990
2 44793  54.0035 302.4378 0007546  42.8010 317.2773  1.86227146 43262
BEIDOU-3 M21            
1 44794U 19078B   26093.58474245 -.00000063  00000+0  00000+0 0  9990
2 44794  53.9768 302.4147 0005354  38.8071 321.2518  1.86227660 43268
ELEKTRO-L 3             
1 44903U 19095A   26094.11995293 -.00000097  00000+0  00000+0 0  9999
2 44903   0.0738  60.6930 0001393 302.7570 308.1061  1.00272242 22962
GPS BIII-3              
1 45854U 20041A   26093.68516649 -.00000093  00000+0  00000+0 0  9999
2 45854  56.6249  31.8341 0061738 205.1250 327.9792  2.00560321 42543
